{
  "swine": [
    {
      "id": 0,
      "eartag": 198177,
      "isActive": true,
      "swine_type": "S002",
      "state_code": "00001",
      "estrus_code": 1,
      "post_code": 223400,
      "zone_code": 22340020,
      "house_code": 2234002010,
      "pen_code": "2234002010000",
      "row_code": "C"
    },
    {
      "id": 1,
      "eartag": 379294,
      "isActive": false,
      "swine_type": "S002",
      "state_code": "00106",
      "estrus_code": 2,
      "post_code": 223400,
      "zone_code": 22340020,
      "house_code": 2234002010,
      "pen_code": "2234002010001",
      "row_code": "B"
    },
    {
      "id": 2,
      "eartag": 439759,
      "isActive": false,
      "swine_type": "S002",
      "state_code": "00001",
      "estrus_code": 2,
      "post_code": 223400,
      "zone_code": 22340020,
      "house_code": 2234002010,
      "pen_code": "2234002010002",
      "row_code": "B"
    },
    {
      "id": 3,
      "eartag": 243039,
      "isActive": true,
      "swine_type": "S002",
      "state_code": "01102",
      "estrus_code": 1,
      "post_code": 223400,
      "zone_code": 22340020,
      "house_code": 2234002010,
      "pen_code": "2234002010003",
      "row_code": "B"
    },
    {
      "id": 4,
      "eartag": 351049,
      "isActive": false,
      "swine_type": "S002",
      "state_code": "00001",
      "estrus_code": 0,
      "post_code": 223400,
      "zone_code": 22340020,
      "house_code": 2234002010,
      "pen_code": "2234002010004",
      "row_code": "A"
    },
    {
      "id": 5,
      "eartag": 848834,
      "isActive": false,
      "swine_type": "S002",
      "state_code": "00001",
      "estrus_code": 0,
      "post_code": 223400,
      "zone_code": 22340020,
      "house_code": 2234002010,
      "pen_code": "2234002010005",
      "row_code": "D"
    },
    {
      "id": 6,
      "eartag": 286401,
      "isActive": true,
      "swine_type": "S002",
      "state_code": "00106",
      "estrus_code": 2,
      "post_code": 223400,
      "zone_code": 22340020,
      "house_code": 2234002010,
      "pen_code": "2234002010006",
      "row_code": "C"
    },
    {
      "id": 7,
      "eartag": 585779,
      "isActive": true,
      "swine_type": "S002",
      "state_code": "00106",
      "estrus_code": 2,
      "post_code": 223400,
      "zone_code": 22340020,
      "house_code": 2234002010,
      "pen_code": "2234002010007",
      "row_code": "A"
    },
    {
      "id": 8,
      "eartag": 979296,
      "isActive": false,
      "swine_type": "S002",
      "state_code": "01102",
      "estrus_code": 1,
      "post_code": 223400,
      "zone_code": 22340020,
      "house_code": 2234002010,
      "pen_code": "2234002010008",
      "row_code": "A"
    },
    {
      "id": 9,
      "eartag": 877053,
      "isActive": true,
      "swine_type": "S002",
      "state_code": "00001",
      "estrus_code": 0,
      "post_code": 223400,
      "zone_code": 22340020,
      "house_code": 2234002010,
      "pen_code": "2234002010009",
      "row_code": "B"
    },
    {
      "id": 10,
      "eartag": 683444,
      "isActive": false,
      "swine_type": "S002",
      "state_code": "00001",
      "estrus_code": 1,
      "post_code": 223400,
      "zone_code": 22340020,
      "house_code": 2234002010,
      "pen_code": "2234002010010",
      "row_code": "D"
    },
    {
      "id": 11,
      "eartag": 528786,
      "isActive": false,
      "swine_type": "S002",
      "state_code": "01102",
      "estrus_code": 1,
      "post_code": 223400,
      "zone_code": 22340020,
      "house_code": 2234002010,
      "pen_code": "2234002010011",
      "row_code": "D"
    },
    {
      "id": 12,
      "eartag": 358770,
      "isActive": false,
      "swine_type": "S002",
      "state_code": "01102",
      "estrus_code": 2,
      "post_code": 223400,
      "zone_code": 22340020,
      "house_code": 2234002010,
      "pen_code": "2234002010012",
      "row_code": "A"
    },
    {
      "id": 13,
      "eartag": 284254,
      "isActive": true,
      "swine_type": "S002",
      "state_code": "01102",
      "estrus_code": 0,
      "post_code": 223400,
      "zone_code": 22340020,
      "house_code": 2234002010,
      "pen_code": "2234002010013",
      "row_code": "B"
    },
    {
      "id": 14,
      "eartag": 351825,
      "isActive": false,
      "swine_type": "S002",
      "state_code": "00001",
      "estrus_code": 0,
      "post_code": 223400,
      "zone_code": 22340020,
      "house_code": 2234002010,
      "pen_code": "2234002010014",
      "row_code": "B"
    },
    {
      "id": 15,
      "eartag": 485604,
      "isActive": true,
      "swine_type": "S002",
      "state_code": "01102",
      "estrus_code": 2,
      "post_code": 223400,
      "zone_code": 22340020,
      "house_code": 2234002010,
      "pen_code": "2234002010015",
      "row_code": "E"
    },
    {
      "id": 16,
      "eartag": 221295,
      "isActive": true,
      "swine_type": "S002",
      "state_code": "00001",
      "estrus_code": 2,
      "post_code": 223400,
      "zone_code": 22340020,
      "house_code": 2234002010,
      "pen_code": "2234002010016",
      "row_code": "A"
    },
    {
      "id": 17,
      "eartag": 366949,
      "isActive": true,
      "swine_type": "S002",
      "state_code": "00106",
      "estrus_code": 2,
      "post_code": 223400,
      "zone_code": 22340020,
      "house_code": 2234002010,
      "pen_code": "2234002010017",
      "row_code": "A"
    },
    {
      "id": 18,
      "eartag": 621066,
      "isActive": true,
      "swine_type": "S002",
      "state_code": "01102",
      "estrus_code": 0,
      "post_code": 223400,
      "zone_code": 22340020,
      "house_code": 2234002010,
      "pen_code": "2234002010018",
      "row_code": "E"
    },
    {
      "id": 19,
      "eartag": 169022,
      "isActive": false,
      "swine_type": "S002",
      "state_code": "01102",
      "estrus_code": 1,
      "post_code": 223400,
      "zone_code": 22340020,
      "house_code": 2234002010,
      "pen_code": "2234002010019",
      "row_code": "A"
    },
    {
      "id": 20,
      "eartag": 675568,
      "isActive": false,
      "swine_type": "S002",
      "state_code": "00106",
      "estrus_code": 0,
      "post_code": 223400,
      "zone_code": 22340020,
      "house_code": 2234002010,
      "pen_code": "2234002010020",
      "row_code": "A"
    },
    {
      "id": 21,
      "eartag": 909216,
      "isActive": false,
      "swine_type": "S002",
      "state_code": "00001",
      "estrus_code": 2,
      "post_code": 223400,
      "zone_code": 22340020,
      "house_code": 2234002010,
      "pen_code": "2234002010021",
      "row_code": "E"
    },
    {
      "id": 22,
      "eartag": 598373,
      "isActive": true,
      "swine_type": "S002",
      "state_code": "01102",
      "estrus_code": 1,
      "post_code": 223400,
      "zone_code": 22340020,
      "house_code": 2234002010,
      "pen_code": "2234002010022",
      "row_code": "B"
    },
    {
      "id": 23,
      "eartag": 281016,
      "isActive": false,
      "swine_type": "S002",
      "state_code": "00106",
      "estrus_code": 0,
      "post_code": 223400,
      "zone_code": 22340020,
      "house_code": 2234002010,
      "pen_code": "2234002010023",
      "row_code": "E"
    },
    {
      "id": 24,
      "eartag": 704289,
      "isActive": false,
      "swine_type": "S002",
      "state_code": "00106",
      "estrus_code": 0,
      "post_code": 223400,
      "zone_code": 22340020,
      "house_code": 2234002010,
      "pen_code": "2234002010024",
      "row_code": "C"
    },
    {
      "id": 25,
      "eartag": 716205,
      "isActive": false,
      "swine_type": "S002",
      "state_code": "00001",
      "estrus_code": 2,
      "post_code": 223400,
      "zone_code": 22340020,
      "house_code": 2234002010,
      "pen_code": "2234002010025",
      "row_code": "D"
    },
    {
      "id": 26,
      "eartag": 847611,
      "isActive": false,
      "swine_type": "S002",
      "state_code": "00001",
      "estrus_code": 2,
      "post_code": 223400,
      "zone_code": 22340020,
      "house_code": 2234002010,
      "pen_code": "2234002010026",
      "row_code": "B"
    },
    {
      "id": 27,
      "eartag": 492266,
      "isActive": false,
      "swine_type": "S002",
      "state_code": "00001",
      "estrus_code": 1,
      "post_code": 223400,
      "zone_code": 22340020,
      "house_code": 2234002010,
      "pen_code": "2234002010027",
      "row_code": "B"
    },
    {
      "id": 28,
      "eartag": 152115,
      "isActive": false,
      "swine_type": "S002",
      "state_code": "00001",
      "estrus_code": 2,
      "post_code": 223400,
      "zone_code": 22340020,
      "house_code": 2234002010,
      "pen_code": "2234002010028",
      "row_code": "D"
    },
    {
      "id": 29,
      "eartag": 826903,
      "isActive": false,
      "swine_type": "S002",
      "state_code": "01102",
      "estrus_code": 0,
      "post_code": 223400,
      "zone_code": 22340020,
      "house_code": 2234002010,
      "pen_code": "2234002010029",
      "row_code": "E"
    },
    {
      "id": 30,
      "eartag": 415346,
      "isActive": true,
      "swine_type": "S002",
      "state_code": "00106",
      "estrus_code": 0,
      "post_code": 223400,
      "zone_code": 22340020,
      "house_code": 2234002010,
      "pen_code": "2234002010030",
      "row_code": "B"
    },
    {
      "id": 31,
      "eartag": 261446,
      "isActive": true,
      "swine_type": "S002",
      "state_code": "01102",
      "estrus_code": 0,
      "post_code": 223400,
      "zone_code": 22340020,
      "house_code": 2234002010,
      "pen_code": "2234002010031",
      "row_code": "B"
    },
    {
      "id": 32,
      "eartag": 207068,
      "isActive": true,
      "swine_type": "S002",
      "state_code": "01102",
      "estrus_code": 0,
      "post_code": 223400,
      "zone_code": 22340020,
      "house_code": 2234002010,
      "pen_code": "2234002010032",
      "row_code": "D"
    },
    {
      "id": 33,
      "eartag": 140716,
      "isActive": false,
      "swine_type": "S002",
      "state_code": "00001",
      "estrus_code": 2,
      "post_code": 223400,
      "zone_code": 22340020,
      "house_code": 2234002010,
      "pen_code": "2234002010033",
      "row_code": "C"
    },
    {
      "id": 34,
      "eartag": 677213,
      "isActive": false,
      "swine_type": "S002",
      "state_code": "00106",
      "estrus_code": 2,
      "post_code": 223400,
      "zone_code": 22340020,
      "house_code": 2234002010,
      "pen_code": "2234002010034",
      "row_code": "A"
    },
    {
      "id": 35,
      "eartag": 418499,
      "isActive": false,
      "swine_type": "S002",
      "state_code": "00106",
      "estrus_code": 0,
      "post_code": 223400,
      "zone_code": 22340020,
      "house_code": 2234002010,
      "pen_code": "2234002010035",
      "row_code": "B"
    },
    {
      "id": 36,
      "eartag": 176333,
      "isActive": true,
      "swine_type": "S002",
      "state_code": "00001",
      "estrus_code": 2,
      "post_code": 223400,
      "zone_code": 22340020,
      "house_code": 2234002010,
      "pen_code": "2234002010036",
      "row_code": "B"
    },
    {
      "id": 37,
      "eartag": 773258,
      "isActive": false,
      "swine_type": "S002",
      "state_code": "00001",
      "estrus_code": 2,
      "post_code": 223400,
      "zone_code": 22340020,
      "house_code": 2234002010,
      "pen_code": "2234002010037",
      "row_code": "D"
    },
    {
      "id": 38,
      "eartag": 727639,
      "isActive": true,
      "swine_type": "S002",
      "state_code": "01102",
      "estrus_code": 1,
      "post_code": 223400,
      "zone_code": 22340020,
      "house_code": 2234002010,
      "pen_code": "2234002010038",
      "row_code": "D"
    },
    {
      "id": 39,
      "eartag": 108173,
      "isActive": true,
      "swine_type": "S002",
      "state_code": "00001",
      "estrus_code": 0,
      "post_code": 223400,
      "zone_code": 22340020,
      "house_code": 2234002010,
      "pen_code": "2234002010039",
      "row_code": "B"
    },
    {
      "id": 40,
      "eartag": 582365,
      "isActive": true,
      "swine_type": "S002",
      "state_code": "00106",
      "estrus_code": 1,
      "post_code": 223400,
      "zone_code": 22340020,
      "house_code": 2234002010,
      "pen_code": "2234002010040",
      "row_code": "D"
    },
    {
      "id": 41,
      "eartag": 479250,
      "isActive": false,
      "swine_type": "S002",
      "state_code": "00106",
      "estrus_code": 2,
      "post_code": 223400,
      "zone_code": 22340020,
      "house_code": 2234002010,
      "pen_code": "2234002010041",
      "row_code": "D"
    },
    {
      "id": 42,
      "eartag": 921195,
      "isActive": true,
      "swine_type": "S002",
      "state_code": "01102",
      "estrus_code": 0,
      "post_code": 223400,
      "zone_code": 22340020,
      "house_code": 2234002010,
      "pen_code": "2234002010042",
      "row_code": "B"
    },
    {
      "id": 43,
      "eartag": 505407,
      "isActive": true,
      "swine_type": "S002",
      "state_code": "00001",
      "estrus_code": 1,
      "post_code": 223400,
      "zone_code": 22340020,
      "house_code": 2234002010,
      "pen_code": "2234002010043",
      "row_code": "B"
    },
    {
      "id": 44,
      "eartag": 677190,
      "isActive": false,
      "swine_type": "S002",
      "state_code": "00106",
      "estrus_code": 1,
      "post_code": 223400,
      "zone_code": 22340020,
      "house_code": 2234002010,
      "pen_code": "2234002010044",
      "row_code": "B"
    },
    {
      "id": 45,
      "eartag": 508596,
      "isActive": true,
      "swine_type": "S002",
      "state_code": "01102",
      "estrus_code": 0,
      "post_code": 223400,
      "zone_code": 22340020,
      "house_code": 2234002010,
      "pen_code": "2234002010045",
      "row_code": "B"
    },
    {
      "id": 46,
      "eartag": 494635,
      "isActive": false,
      "swine_type": "S002",
      "state_code": "00106",
      "estrus_code": 2,
      "post_code": 223400,
      "zone_code": 22340020,
      "house_code": 2234002010,
      "pen_code": "2234002010046",
      "row_code": "E"
    },
    {
      "id": 47,
      "eartag": 496373,
      "isActive": true,
      "swine_type": "S002",
      "state_code": "00106",
      "estrus_code": 1,
      "post_code": 223400,
      "zone_code": 22340020,
      "house_code": 2234002010,
      "pen_code": "2234002010047",
      "row_code": "E"
    },
    {
      "id": 48,
      "eartag": 138798,
      "isActive": false,
      "swine_type": "S002",
      "state_code": "00106",
      "estrus_code": 0,
      "post_code": 223400,
      "zone_code": 22340020,
      "house_code": 2234002010,
      "pen_code": "2234002010048",
      "row_code": "B"
    },
    {
      "id": 49,
      "eartag": 449440,
      "isActive": true,
      "swine_type": "S002",
      "state_code": "01102",
      "estrus_code": 0,
      "post_code": 223400,
      "zone_code": 22340020,
      "house_code": 2234002010,
      "pen_code": "2234002010049",
      "row_code": "D"
    },
    {
      "id": 50,
      "eartag": 296557,
      "isActive": true,
      "swine_type": "S002",
      "state_code": "01102",
      "estrus_code": 0,
      "post_code": 223400,
      "zone_code": 22340020,
      "house_code": 2234002010,
      "pen_code": "2234002010050",
      "row_code": "E"
    },
    {
      "id": 51,
      "eartag": 260220,
      "isActive": false,
      "swine_type": "S002",
      "state_code": "00001",
      "estrus_code": 0,
      "post_code": 223400,
      "zone_code": 22340020,
      "house_code": 2234002010,
      "pen_code": "2234002010051",
      "row_code": "E"
    },
    {
      "id": 52,
      "eartag": 808310,
      "isActive": false,
      "swine_type": "S002",
      "state_code": "01102",
      "estrus_code": 2,
      "post_code": 223400,
      "zone_code": 22340020,
      "house_code": 2234002010,
      "pen_code": "2234002010052",
      "row_code": "E"
    },
    {
      "id": 53,
      "eartag": 534168,
      "isActive": true,
      "swine_type": "S002",
      "state_code": "01102",
      "estrus_code": 1,
      "post_code": 223400,
      "zone_code": 22340020,
      "house_code": 2234002010,
      "pen_code": "2234002010053",
      "row_code": "A"
    },
    {
      "id": 54,
      "eartag": 922908,
      "isActive": true,
      "swine_type": "S002",
      "state_code": "00001",
      "estrus_code": 0,
      "post_code": 223400,
      "zone_code": 22340020,
      "house_code": 2234002010,
      "pen_code": "2234002010054",
      "row_code": "A"
    },
    {
      "id": 55,
      "eartag": 313074,
      "isActive": false,
      "swine_type": "S002",
      "state_code": "01102",
      "estrus_code": 1,
      "post_code": 223400,
      "zone_code": 22340020,
      "house_code": 2234002010,
      "pen_code": "2234002010055",
      "row_code": "B"
    },
    {
      "id": 56,
      "eartag": 343619,
      "isActive": false,
      "swine_type": "S002",
      "state_code": "01102",
      "estrus_code": 1,
      "post_code": 223400,
      "zone_code": 22340020,
      "house_code": 2234002010,
      "pen_code": "2234002010056",
      "row_code": "E"
    },
    {
      "id": 57,
      "eartag": 176688,
      "isActive": false,
      "swine_type": "S002",
      "state_code": "00106",
      "estrus_code": 0,
      "post_code": 223400,
      "zone_code": 22340020,
      "house_code": 2234002010,
      "pen_code": "2234002010057",
      "row_code": "C"
    },
    {
      "id": 58,
      "eartag": 529625,
      "isActive": true,
      "swine_type": "S002",
      "state_code": "00106",
      "estrus_code": 0,
      "post_code": 223400,
      "zone_code": 22340020,
      "house_code": 2234002010,
      "pen_code": "2234002010058",
      "row_code": "C"
    },
    {
      "id": 59,
      "eartag": 140597,
      "isActive": false,
      "swine_type": "S002",
      "state_code": "01102",
      "estrus_code": 2,
      "post_code": 223400,
      "zone_code": 22340020,
      "house_code": 2234002010,
      "pen_code": "2234002010059",
      "row_code": "A"
    },
    {
      "id": 60,
      "eartag": 410653,
      "isActive": false,
      "swine_type": "S002",
      "state_code": "00001",
      "estrus_code": 2,
      "post_code": 223400,
      "zone_code": 22340020,
      "house_code": 2234002010,
      "pen_code": "2234002010060",
      "row_code": "C"
    },
    {
      "id": 61,
      "eartag": 810609,
      "isActive": false,
      "swine_type": "S002",
      "state_code": "00106",
      "estrus_code": 1,
      "post_code": 223400,
      "zone_code": 22340020,
      "house_code": 2234002010,
      "pen_code": "2234002010061",
      "row_code": "D"
    },
    {
      "id": 62,
      "eartag": 790436,
      "isActive": true,
      "swine_type": "S002",
      "state_code": "01102",
      "estrus_code": 1,
      "post_code": 223400,
      "zone_code": 22340020,
      "house_code": 2234002010,
      "pen_code": "2234002010062",
      "row_code": "C"
    },
    {
      "id": 63,
      "eartag": 836355,
      "isActive": true,
      "swine_type": "S002",
      "state_code": "00106",
      "estrus_code": 0,
      "post_code": 223400,
      "zone_code": 22340020,
      "house_code": 2234002010,
      "pen_code": "2234002010063",
      "row_code": "D"
    },
    {
      "id": 64,
      "eartag": 856315,
      "isActive": false,
      "swine_type": "S002",
      "state_code": "00001",
      "estrus_code": 1,
      "post_code": 223400,
      "zone_code": 22340020,
      "house_code": 2234002010,
      "pen_code": "2234002010064",
      "row_code": "A"
    },
    {
      "id": 65,
      "eartag": 944402,
      "isActive": true,
      "swine_type": "S002",
      "state_code": "01102",
      "estrus_code": 2,
      "post_code": 223400,
      "zone_code": 22340020,
      "house_code": 2234002010,
      "pen_code": "2234002010065",
      "row_code": "C"
    },
    {
      "id": 66,
      "eartag": 103665,
      "isActive": false,
      "swine_type": "S002",
      "state_code": "00001",
      "estrus_code": 0,
      "post_code": 223400,
      "zone_code": 22340020,
      "house_code": 2234002010,
      "pen_code": "2234002010066",
      "row_code": "D"
    },
    {
      "id": 67,
      "eartag": 687292,
      "isActive": true,
      "swine_type": "S002",
      "state_code": "00106",
      "estrus_code": 1,
      "post_code": 223400,
      "zone_code": 22340020,
      "house_code": 2234002010,
      "pen_code": "2234002010067",
      "row_code": "B"
    },
    {
      "id": 68,
      "eartag": 352061,
      "isActive": false,
      "swine_type": "S002",
      "state_code": "00106",
      "estrus_code": 1,
      "post_code": 223400,
      "zone_code": 22340020,
      "house_code": 2234002010,
      "pen_code": "2234002010068",
      "row_code": "E"
    },
    {
      "id": 69,
      "eartag": 812306,
      "isActive": true,
      "swine_type": "S002",
      "state_code": "00001",
      "estrus_code": 0,
      "post_code": 223400,
      "zone_code": 22340020,
      "house_code": 2234002010,
      "pen_code": "2234002010069",
      "row_code": "B"
    },
    {
      "id": 70,
      "eartag": 537288,
      "isActive": false,
      "swine_type": "S002",
      "state_code": "01102",
      "estrus_code": 2,
      "post_code": 223400,
      "zone_code": 22340020,
      "house_code": 2234002010,
      "pen_code": "2234002010070",
      "row_code": "D"
    },
    {
      "id": 71,
      "eartag": 284113,
      "isActive": false,
      "swine_type": "S002",
      "state_code": "00106",
      "estrus_code": 2,
      "post_code": 223400,
      "zone_code": 22340020,
      "house_code": 2234002010,
      "pen_code": "2234002010071",
      "row_code": "B"
    },
    {
      "id": 72,
      "eartag": 448053,
      "isActive": false,
      "swine_type": "S002",
      "state_code": "00001",
      "estrus_code": 1,
      "post_code": 223400,
      "zone_code": 22340020,
      "house_code": 2234002010,
      "pen_code": "2234002010072",
      "row_code": "A"
    },
    {
      "id": 73,
      "eartag": 999481,
      "isActive": false,
      "swine_type": "S002",
      "state_code": "01102",
      "estrus_code": 1,
      "post_code": 223400,
      "zone_code": 22340020,
      "house_code": 2234002010,
      "pen_code": "2234002010073",
      "row_code": "D"
    },
    {
      "id": 74,
      "eartag": 781863,
      "isActive": true,
      "swine_type": "S002",
      "state_code": "00001",
      "estrus_code": 2,
      "post_code": 223400,
      "zone_code": 22340020,
      "house_code": 2234002010,
      "pen_code": "2234002010074",
      "row_code": "B"
    },
    {
      "id": 75,
      "eartag": 391554,
      "isActive": false,
      "swine_type": "S002",
      "state_code": "01102",
      "estrus_code": 1,
      "post_code": 223400,
      "zone_code": 22340020,
      "house_code": 2234002010,
      "pen_code": "2234002010075",
      "row_code": "A"
    },
    {
      "id": 76,
      "eartag": 715501,
      "isActive": true,
      "swine_type": "S002",
      "state_code": "01102",
      "estrus_code": 0,
      "post_code": 223400,
      "zone_code": 22340020,
      "house_code": 2234002010,
      "pen_code": "2234002010076",
      "row_code": "B"
    },
    {
      "id": 77,
      "eartag": 297568,
      "isActive": true,
      "swine_type": "S002",
      "state_code": "00106",
      "estrus_code": 0,
      "post_code": 223400,
      "zone_code": 22340020,
      "house_code": 2234002010,
      "pen_code": "2234002010077",
      "row_code": "E"
    },
    {
      "id": 78,
      "eartag": 289546,
      "isActive": false,
      "swine_type": "S002",
      "state_code": "00106",
      "estrus_code": 2,
      "post_code": 223400,
      "zone_code": 22340020,
      "house_code": 2234002010,
      "pen_code": "2234002010078",
      "row_code": "D"
    },
    {
      "id": 79,
      "eartag": 180673,
      "isActive": true,
      "swine_type": "S002",
      "state_code": "00001",
      "estrus_code": 2,
      "post_code": 223400,
      "zone_code": 22340020,
      "house_code": 2234002010,
      "pen_code": "2234002010079",
      "row_code": "C"
    },
    {
      "id": 80,
      "eartag": 366620,
      "isActive": false,
      "swine_type": "S002",
      "state_code": "00106",
      "estrus_code": 0,
      "post_code": 223400,
      "zone_code": 22340020,
      "house_code": 2234002010,
      "pen_code": "2234002010080",
      "row_code": "B"
    },
    {
      "id": 81,
      "eartag": 577162,
      "isActive": false,
      "swine_type": "S002",
      "state_code": "00106",
      "estrus_code": 1,
      "post_code": 223400,
      "zone_code": 22340020,
      "house_code": 2234002010,
      "pen_code": "2234002010081",
      "row_code": "E"
    },
    {
      "id": 82,
      "eartag": 825063,
      "isActive": false,
      "swine_type": "S002",
      "state_code": "00106",
      "estrus_code": 0,
      "post_code": 223400,
      "zone_code": 22340020,
      "house_code": 2234002010,
      "pen_code": "2234002010082",
      "row_code": "E"
    },
    {
      "id": 83,
      "eartag": 596324,
      "isActive": true,
      "swine_type": "S002",
      "state_code": "00001",
      "estrus_code": 0,
      "post_code": 223400,
      "zone_code": 22340020,
      "house_code": 2234002010,
      "pen_code": "2234002010083",
      "row_code": "E"
    },
    {
      "id": 84,
      "eartag": 178633,
      "isActive": false,
      "swine_type": "S002",
      "state_code": "00001",
      "estrus_code": 1,
      "post_code": 223400,
      "zone_code": 22340020,
      "house_code": 2234002010,
      "pen_code": "2234002010084",
      "row_code": "C"
    },
    {
      "id": 85,
      "eartag": 222917,
      "isActive": true,
      "swine_type": "S002",
      "state_code": "00001",
      "estrus_code": 2,
      "post_code": 223400,
      "zone_code": 22340020,
      "house_code": 2234002010,
      "pen_code": "2234002010085",
      "row_code": "D"
    },
    {
      "id": 86,
      "eartag": 898884,
      "isActive": false,
      "swine_type": "S002",
      "state_code": "00106",
      "estrus_code": 2,
      "post_code": 223400,
      "zone_code": 22340020,
      "house_code": 2234002010,
      "pen_code": "2234002010086",
      "row_code": "A"
    },
    {
      "id": 87,
      "eartag": 665208,
      "isActive": true,
      "swine_type": "S002",
      "state_code": "00106",
      "estrus_code": 1,
      "post_code": 223400,
      "zone_code": 22340020,
      "house_code": 2234002010,
      "pen_code": "2234002010087",
      "row_code": "C"
    },
    {
      "id": 88,
      "eartag": 850790,
      "isActive": true,
      "swine_type": "S002",
      "state_code": "00106",
      "estrus_code": 1,
      "post_code": 223400,
      "zone_code": 22340020,
      "house_code": 2234002010,
      "pen_code": "2234002010088",
      "row_code": "E"
    },
    {
      "id": 89,
      "eartag": 850311,
      "isActive": false,
      "swine_type": "S002",
      "state_code": "00001",
      "estrus_code": 2,
      "post_code": 223400,
      "zone_code": 22340020,
      "house_code": 2234002010,
      "pen_code": "2234002010089",
      "row_code": "D"
    },
    {
      "id": 90,
      "eartag": 388526,
      "isActive": false,
      "swine_type": "S001",
      "state_code": 1103,
      "estrus_code": 99,
      "post_code": 223400,
      "zone_code": 22340020,
      "house_code": 2234002010,
      "pen_code": "2234002010090",
      "row_code": "C"
    },
    {
      "id": 91,
      "eartag": 361443,
      "isActive": true,
      "swine_type": "S001",
      "state_code": 1103,
      "estrus_code": 99,
      "post_code": 223400,
      "zone_code": 22340020,
      "house_code": 2234002010,
      "pen_code": "2234002010091",
      "row_code": "A"
    },
    {
      "id": 92,
      "eartag": 157516,
      "isActive": false,
      "swine_type": "S001",
      "state_code": 1103,
      "estrus_code": 99,
      "post_code": 223400,
      "zone_code": 22340020,
      "house_code": 2234002010,
      "pen_code": "2234002010092",
      "row_code": "B"
    },
    {
      "id": 93,
      "eartag": 237364,
      "isActive": true,
      "swine_type": "S001",
      "state_code": 1103,
      "estrus_code": 99,
      "post_code": 223400,
      "zone_code": 22340020,
      "house_code": 2234002010,
      "pen_code": "2234002010093",
      "row_code": "B"
    },
    {
      "id": 94,
      "eartag": 191002,
      "isActive": false,
      "swine_type": "S001",
      "state_code": 1103,
      "estrus_code": 99,
      "post_code": 223400,
      "zone_code": 22340020,
      "house_code": 2234002010,
      "pen_code": "2234002010094",
      "row_code": "A"
    },
    {
      "id": 95,
      "eartag": 407254,
      "isActive": true,
      "swine_type": "S001",
      "state_code": 1103,
      "estrus_code": 99,
      "post_code": 223400,
      "zone_code": 22340020,
      "house_code": 2234002010,
      "pen_code": "2234002010095",
      "row_code": "E"
    },
    {
      "id": 96,
      "eartag": 276463,
      "isActive": false,
      "swine_type": "S001",
      "state_code": 1103,
      "estrus_code": 99,
      "post_code": 223400,
      "zone_code": 22340020,
      "house_code": 2234002010,
      "pen_code": "2234002010096",
      "row_code": "D"
    },
    {
      "id": 97,
      "eartag": 263848,
      "isActive": true,
      "swine_type": "S001",
      "state_code": 1103,
      "estrus_code": 99,
      "post_code": 223400,
      "zone_code": 22340020,
      "house_code": 2234002010,
      "pen_code": "2234002010097",
      "row_code": "D"
    },
    {
      "id": 98,
      "eartag": 397811,
      "isActive": true,
      "swine_type": "S001",
      "state_code": 1103,
      "estrus_code": 99,
      "post_code": 223400,
      "zone_code": 22340020,
      "house_code": 2234002010,
      "pen_code": "2234002010098",
      "row_code": "A"
    },
    {
      "id": 99,
      "eartag": 202578,
      "isActive": true,
      "swine_type": "S001",
      "state_code": 1103,
      "estrus_code": 99,
      "post_code": 223400,
      "zone_code": 22340020,
      "house_code": 2234002010,
      "pen_code": "2234002010099",
      "row_code": "C"
    },
    {
      "id": 100,
      "eartag": 347967,
      "isActive": true,
      "swine_type": "S001",
      "state_code": 1103,
      "estrus_code": 99,
      "post_code": 223400,
      "zone_code": 22340020,
      "house_code": 2234002010,
      "pen_code": "2234002010100",
      "row_code": "A"
    },
    {
      "id": 101,
      "eartag": 312072,
      "isActive": false,
      "swine_type": "S001",
      "state_code": 1103,
      "estrus_code": 99,
      "post_code": 223400,
      "zone_code": 22340020,
      "house_code": 2234002010,
      "pen_code": "2234002010101",
      "row_code": "A"
    },
    {
      "id": 102,
      "eartag": 437975,
      "isActive": false,
      "swine_type": "S001",
      "state_code": 1103,
      "estrus_code": 99,
      "post_code": 223400,
      "zone_code": 22340020,
      "house_code": 2234002010,
      "pen_code": "2234002010102",
      "row_code": "D"
    },
    {
      "id": 103,
      "eartag": 111183,
      "isActive": false,
      "swine_type": "S001",
      "state_code": 1103,
      "estrus_code": 99,
      "post_code": 223400,
      "zone_code": 22340020,
      "house_code": 2234002010,
      "pen_code": "2234002010103",
      "row_code": "C"
    },
    {
      "id": 104,
      "eartag": 455748,
      "isActive": false,
      "swine_type": "S001",
      "state_code": 1103,
      "estrus_code": 99,
      "post_code": 223400,
      "zone_code": 22340020,
      "house_code": 2234002010,
      "pen_code": "2234002010104",
      "row_code": "C"
    }
  ],
  "work_order": [
    {
      "id": 1,
      "name": "發情",
      "WorkOrderTypeCode": "Estrus"
    },
    {
      "id": 2,
      "name": "輸精",
      "WorkOrderTypeCode": "Estrus"
    },
    {
      "id": 3,
      "name": "妊檢",
      "WorkOrderTypeCode": "Estrus"
    },
    {
      "id": 4,
      "name": "診斷",
      "WorkOrderTypeCode": "Estrus"
    },
    {
      "id": 5,
      "name": "用藥",
      "WorkOrderTypeCode": "Estrus"
    },
    {
      "id": 6,
      "name": "移欄",
      "WorkOrderTypeCode": "Estrus"
    },
    {
      "id": 7,
      "name": "死亡",
      "WorkOrderTypeCode": "Estrus"
    },
    {
      "id": 8,
      "name": "淘汰",
      "WorkOrderTypeCode": "Estrus"
    }
  ],
  "active_stage": [
    {
      "name": "待查情",
      "stage_code": "0"
    },
    {
      "name": "發情中",
      "stage_code": "1"
    },
    {
      "name": "已配種",
      "stage_code": "3"
    }
  ],
  "swine_state": [
    {
      "name": "後備公豬",
      "state_code": "01001"
    },
    {
      "name": "種公豬",
      "state_code": "01102"
    },
    {
      "name": "誘情公豬",
      "state_code": "01103"
    },
    {
      "name": "後備女豬",
      "state_code": "00001"
    },
    {
      "name": "配種女豬",
      "state_code": "00003"
    },
    {
      "name": "空懷母豬",
      "state_code": "00102"
    },
    {
      "name": "配種母豬",
      "state_code": "00103"
    },
    {
      "name": "懷孕母豬",
      "state_code": "00104"
    },
    {
      "name": "哺乳母豬",
      "state_code": "00105"
    },
    {
      "name": "斷奶母豬",
      "state_code": "00106"
    },
    {
      "name": "哺乳仔豬",
      "state_code": "02201"
    },
    {
      "name": "保育豬",
      "state_code": "02202"
    },
    {
      "name": "育肥豬",
      "state_code": "02203"
    },
    {
      "name": "肥豬",
      "state_code": "02204"
    },
    {
      "name": "斷奶仔豬",
      "state_code": "02205"
    },
    {
      "name": "淘汰豬",
      "state_code": "03301"
    },
    {
      "name": "死亡豬",
      "state_code": "03302"
    }
  ]
}